      2.10          N: GNSS NAV DATA                        RINEX VERSION / TYPE
fic2rin                                 11/26/2022 00:17:41 PGM / RUN BY / DATE
                                                            END OF HEADER
31 22 11 25 22  0  0.0 -.201337039471D-03 -.125055521494D-11  .000000000000D+00
     .560000000000D+02 -.155000000000D+02  .490734726785D-08  .259077907594D+01
    -.847503542900D-06  .107482125750D-01  .770390033722D-05  .515361270332D+04
     .511200000000D+06 -.160187482834D-06  .251239142678D+01 -.856816768646D-07
     .954636961993D+00  .229187500000D+03  .470645154888D+00 -.785675583685D-08
    -.527164815673D-09  .100000000000D+01  .223700000000D+04  .000000000000D+00
     .240000000000D+01  .000000000000D+00 -.135041773319D-07  .560000000000D+02
     .504000000000D+06  .400000000000D+01
29 22 11 25 22  0  0.0 -.569729134440D-03 -.261479726760D-11  .000000000000D+00
     .880000000000D+02  .960937500000D+02  .418338854064D-08 -.359833344069D+00
     .495091080666D-05  .211100757588D-02  .149942934513D-05  .515362202072D+04
     .511200000000D+06 -.204890966415D-07 -.162384257899D+01  .167638063431D-07
     .978563579661D+00  .358500000000D+03  .246915692810D+01 -.821569935971D-08
     .137148569931D-09  .100000000000D+01  .223700000000D+04  .000000000000D+00
     .340000000000D+01  .000000000000D+00 -.102445483208D-07  .880000000000D+02
     .504000000000D+06  .400000000000D+01
32 22 11 25 22  0  0.0 -.308414455503D-03 -.128466126625D-10  .000000000000D+00
     .540000000000D+02  .141875000000D+02  .488841790794D-08  .454018281924D+00
     .661239027977D-06  .624823838007D-02  .709295272827D-05  .515366588020D+04
     .511200000000D+06 -.931322574615D-07  .143352341029D+01  .104308128357D-06
     .958421668578D+00  .242937500000D+03 -.229766299740D+01 -.811605235187D-08
     .554308803472D-09  .100000000000D+01  .223700000000D+04  .000000000000D+00
     .240000000000D+01  .000000000000D+00  .465661287308D-09  .540000000000D+02
     .504000000000D+06  .400000000000D+01
16 22 11 25 22  0  0.0 -.526767224073D-03  .227373675443D-12  .000000000000D+00
     .830000000000D+02  .123156250000D+03  .417624538595D-08  .610429269755D+00
     .669062137604D-05  .130490898155D-01  .102315098047D-04  .515375257111D+04
     .511200000000D+06 -.707805156708D-07 -.265798270029D+01  .128522515297D-06
     .967443595555D+00  .186187500000D+03  .738795566487D+00 -.786389899153D-08
    -.357157734196D-09  .100000000000D+01  .223700000000D+04  .000000000000D+00
     .240000000000D+01  .000000000000D+00 -.102445483208D-07  .830000000000D+02
     .504000000000D+06  .400000000000D+01
30 22 11 25 22  0  0.0 -.536301173270D-03  .454747350886D-12  .000000000000D+00
     .960000000000D+02 -.131875000000D+02  .542344019377D-08  .302940527407D+01
    -.653788447380D-06  .594592292327D-02  .716000795364D-05  .515366716194D+04
     .511200000000D+06 -.931322574615D-08  .250204681120D+01 -.875443220139D-07
     .935615900706D+00  .231125000000D+03 -.266624439994D+01 -.814355349740D-08
    -.436446751188D-09  .100000000000D+01  .223700000000D+04  .000000000000D+00
     .240000000000D+01  .000000000000D+00  .372529029846D-08  .960000000000D+02
     .504000000000D+06  .400000000000D+01
27 22 11 25 22  0  0.0  .169325154275D-03 -.943600753089D-11  .000000000000D+00
     .820000000000D+02  .115500000000D+03  .453626038202D-08 -.260987512640D+00
     .610947608948D-05  .108250085032D-01  .129826366901D-05  .515366445541D+04
     .511200000000D+06  .931322574615D-07 -.170196501573D+01  .115483999252D-06
     .969835077478D+00  .357000000000D+03  .683834857770D+00 -.849642533879D-08
     .130005415247D-09  .100000000000D+01  .223700000000D+04  .000000000000D+00
     .240000000000D+01  .000000000000D+00  .139698386192D-08  .820000000000D+02
     .504000000000D+06  .400000000000D+01
26 22 11 25 22  0  0.0  .236834865063D-03  .102318153949D-11  .000000000000D+00
     .770000000000D+02  .103968750000D+03  .488341769966D-08  .151309005146D+01
     .561587512493D-05  .752082502004D-02  .109430402517D-04  .515360334206D+04
     .511200000000D+06  .186264514923D-08 -.280875104193D+01  .141561031342D-06
     .936068960584D+00  .156687500000D+03  .399266265785D+00 -.806569311135D-08
    -.424660545959D-09  .100000000000D+01  .223700000000D+04  .000000000000D+00
     .240000000000D+01  .000000000000D+00  .698491930962D-08  .770000000000D+02
     .504000000000D+06  .400000000000D+01
22 22 11 25 22  0  0.0  .372010283172D-03  .773070496507D-11  .000000000000D+00
     .108000000000D+03  .103125000000D+02  .495699219291D-08 -.513460612381D+00
     .637024641037D-06  .135489862878D-01  .673905014992D-05  .515374687576D+04
     .511200000000D+06 -.141561031342D-06  .152484886702D+01  .158324837685D-06
     .961489425345D+00  .254968750000D+03 -.184381441251D+01 -.828570227561D-08
     .556451749877D-09  .100000000000D+01  .223700000000D+04  .000000000000D+00
     .240000000000D+01  .000000000000D+00 -.838190317154D-08  .108000000000D+03
     .504000000000D+06  .400000000000D+01
19 22 11 25 22  0  0.0  .242231413722D-03  .511590769747D-11  .000000000000D+00
     .690000000000D+02  .117531250000D+03  .433660920861D-08  .183069110546D+01
     .597722828388D-05  .901893817354D-02  .767409801483D-06  .515374092293D+04
     .511200000000D+06  .111758708954D-06 -.159280964218D+01 -.149011611938D-07
     .975347181639D+00  .368437500000D+03  .221417311715D+01 -.822284251440D-08
     .432160858377D-10  .100000000000D+01  .223700000000D+04  .000000000000D+00
     .240000000000D+01  .000000000000D+00 -.153668224812D-07  .690000000000D+02
     .504000000000D+06  .400000000000D+01
18 22 11 25 22  0  0.0 -.355406664312D-04 -.142108547152D-10  .000000000000D+00
     .340000000000D+02 -.114531250000D+03  .421803284086D-08 -.234421327744D+01
    -.598467886448D-05  .296464725398D-02  .223331153393D-05  .515371660805D+04
     .511200000000D+06 -.447034835815D-07 -.632935544649D+00 -.596046447754D-07
     .972966820819D+00  .343062500000D+03 -.313428566305D+01 -.814533928608D-08
    -.249653256203D-09  .100000000000D+01  .223700000000D+04  .000000000000D+00
     .240000000000D+01  .000000000000D+00 -.838190317154D-08  .290000000000D+03
     .504000000000D+06  .400000000000D+01
23 22 11 25 22  0  0.0 -.736210495234D-06  .341060513165D-12  .000000000000D+00
     .860000000000D+02 -.104406250000D+03  .385266047877D-08  .294698229558D+01
    -.535324215889D-05  .290009903256D-02  .111181288958D-04  .515364331818D+04
     .511200000000D+06 -.353902578354D-07  .366160242398D+00 -.130385160446D-07
     .971553324501D+00  .168937500000D+03  .308915051488D+01 -.756531512574D-08
     .302512600864D-09  .100000000000D+01  .223700000000D+04  .000000000000D+00
     .240000000000D+01  .000000000000D+00 -.838190317154D-08  .598000000000D+03
     .504000000000D+06  .400000000000D+01
